CSS (TIANHE)            
1 48274U 21035A   23302.06118439  .00020897  00000+0  25052-3 0  9990
2 48274  41.4716  60.8266 0004362 347.3014  12.7714 15.60418215142760
